[{"OBJECT_NAME":"STARLINK-31322","OBJECT_ID":"2024-044S","EPOCH":"2026-03-09T02:42:38.904192","MEAN_MOTION":15.27567651,"ECCENTRICITY":0.00019263,"INCLINATION":43.006,"RA_OF_ASC_NODE":110.6049,"ARG_OF_PERICENTER":298.9548,"MEAN_ANOMALY":61.111,"EPHEMERIS_TYPE":0,"CLASSIFICATION_TYPE":"U","NORAD_CAT_ID":59168,"ELEMENT_SET_NO":999,"REV_AT_EPOCH":11350,"BSTAR":-3.5716406e-5,"MEAN_MOTION_DOT":-1.245e-5,"MEAN_MOTION_DDOT":0},{"OBJECT_NAME":"CZ-6A DEB","OBJECT_ID":"2022-151SD","EPOCH":"2026-03-09T21:25:15.700512","MEAN_MOTION":15.24469357,"ECCENTRICITY":0.00248717,"INCLINATION":98.6538,"RA_OF_ASC_NODE":157.5128,"ARG_OF_PERICENTER":174.047,"MEAN_ANOMALY":186.1065,"EPHEMERIS_TYPE":0,"CLASSIFICATION_TYPE":"U","NORAD_CAT_ID":54940,"ELEMENT_SET_NO":999,"REV_AT_EPOCH":17680,"BSTAR":0.0087519903,"MEAN_MOTION_DOT":0.00223015,"MEAN_MOTION_DDOT":0}]
